SatCatId,ObjectName,LaunchYear,OrbitalPeriod,LaunchMass,StatusCode,Inclination,Status,UcsData,OrbitClassEstimated,LaunchSiteCountry,Owner,UseType,Purpose,LaunchVehicleClass,TLE1,TLE2,MeanMotion,Eccentricity,OrbitClass
59221,STARLINK-31516,2024,94.11,-1.0,+,53.16,Active,0,LEO,USA,USA,Unknown,Unknown,Unknown,1 59221U 24046W   24323.41720912  .00010513  00000+0  36643-3 0  9999,2 59221  53.1588 207.3279 0000958  75.3623 284.7484 15.30211726 40121,15.30211726,9.58e-05,LEO
59222,STARLINK-31490,2024,94.11,-1.0,+,53.16,Active,0,LEO,USA,USA,Unknown,Unknown,Unknown,1 59222U 24046X   24323.20447788  .00005154  00000+0  18601-3 0  9993,2 59222  53.1597 208.8390 0000947  99.4333 260.6775 15.30198548 40082,15.30198548,9.47e-05,LEO
59223,STARLINK-31420,2024,94.11,-1.0,+,53.16,Active,0,LEO,USA,USA,Unknown,Unknown,Unknown,1 59223U 24046Y   24323.39727902 -.00000754  00000+0 -13358-4 0  9991,2 59223  53.1582 207.9100 0001173 118.6162 241.4957 15.30182851 40115,15.30182851,0.0001173,LEO
59224,STRIX-3,2024,95.59,-1.0,+,97.6,Active,0,LEO,New Zealand,New Zealand,Unknown,Unknown,Unknown,1 59224U 24047A   24323.56235522  .00008726  00000+0  59387-3 0  9990,2 59224  97.5986 287.4881 0014691 240.5295 119.4467 15.06455556 37682,15.06455556,0.0014691,LEO
59231,STARLINK-31304,2024,93.46,-1.0,+,43.0,Active,0,LEO,USA,USA,Unknown,Unknown,Unknown,1 59231U 24049A   24323.30680163  .00002664  00000+0  71015-4 0  9995,2 59231  43.0003 325.6811 0001689 255.7960 104.2709 15.40703423 39404,15.40703423,0.0001689,LEO
59232,STARLINK-31305,2024,93.46,-1.0,+,43.0,Active,0,LEO,USA,USA,Unknown,Unknown,Unknown,1 59232U 24049B   24322.75233225  .00000650  00000+0  22827-4 0  9997,2 59232  43.0023 328.3741 0000813 233.5702 126.5080 15.40694593 39322,15.40694593,8.13e-05,LEO
59233,STARLINK-31459,2024,93.46,-1.0,+,43.0,Active,0,LEO,USA,USA,Unknown,Unknown,Unknown,1 59233U 24049C   24322.30300954 -.00000035  00000+0  64343-5 0  9991,2 59233  43.0014 331.0262 0001977 266.1984  93.8647 15.40702124 39255,15.40702124,0.0001977,LEO
59234,STARLINK-31438,2024,93.46,-1.0,+,43.0,Active,0,LEO,USA,USA,Unknown,Unknown,Unknown,1 59234U 24049D   24323.30008480  .00001023  00000+0  31766-4 0  9991,2 59234  43.0028 325.6130 0001225 275.9916  84.0801 15.40693009 39405,15.40693009,0.0001225,LEO
59235,STARLINK-31467,2024,93.47,-1.0,+,43.0,Active,0,LEO,USA,USA,Unknown,Unknown,Unknown,1 59235U 24049E   24322.37010262 -.00004764  00000+0 -10698-3 0  9996,2 59235  43.0026 330.6700 0000475 273.5668  86.5134 15.40666889 39274,15.40666889,4.75e-05,LEO
59236,STARLINK-31444,2024,89.63,-1.0,P,42.98,Active,0,LEO,USA,USA,Unknown,Unknown,Unknown,1 59236U 24049F   24321.14910565  .00076480  11278-4  10000-3 0  9999,2 59236  42.9837 320.7736 0001637 298.3800 150.5373 16.06556261 39256,16.06556261,0.0001637,LEO
59237,STARLINK-31505,2024,93.46,-1.0,+,43.0,Active,0,LEO,USA,USA,Unknown,Unknown,Unknown,1 59237U 24049G   24323.33802143  .00001100  00000+0  33594-4 0  9992,2 59237  43.0009 325.0405 0001574 258.6443 101.4237 15.40706778 39423,15.40706778,0.0001574,LEO
59238,STARLINK-31494,2024,93.46,-1.0,+,43.0,Active,0,LEO,USA,USA,Unknown,Unknown,Unknown,1 59238U 24049H   24323.29111453 -.00001819  00000+0 -36260-4 0  9997,2 59238  43.0053 325.5396 0002241 278.2389  81.8213 15.40716470 39410,15.4071647,0.0002241,LEO
59239,STARLINK-31303,2024,93.46,-1.0,+,43.0,Active,0,LEO,USA,USA,Unknown,Unknown,Unknown,1 59239U 24049J   24321.75497952  .00000549  00000+0  20418-4 0  9993,2 59239  43.0012 332.0067 0001399 258.8197 101.2502 15.40690881 39200,15.40690881,0.0001399,LEO
59240,STARLINK-31408,2024,93.46,-1.0,+,43.0,Active,0,LEO,USA,USA,Unknown,Unknown,Unknown,1 59240U 24049K   24323.28873215 -.00000730  00000+0 -10213-4 0  9991,2 59240  43.0020 324.6579 0001333 258.6600 101.4107 15.40720655 39421,15.40720655,0.0001333,LEO
59241,STARLINK-31427,2024,93.47,-1.0,+,43.0,Active,0,LEO,USA,USA,Unknown,Unknown,Unknown,1 59241U 24049L   24322.73873655  .00000332  00000+0  15215-4 0  9992,2 59241  43.0003 327.3791 0001627 271.1003  88.9667 15.40709457 39340,15.40709457,0.0001627,LEO
59242,STARLINK-31423,2024,93.47,-1.0,+,43.0,Active,0,LEO,USA,USA,Unknown,Unknown,Unknown,1 59242U 24049M   24322.73211940  .00006952  00000+0  17326-3 0  9994,2 59242  43.0031 328.2185 0002052 258.2700 101.7926 15.40747580 39332,15.4074758,0.0002052,LEO
59243,STARLINK-31433,2024,93.46,-1.0,+,43.0,Active,0,LEO,USA,USA,Unknown,Unknown,Unknown,1 59243U 24049N   24323.27992707 -.00001794  00000+0 -35712-4 0  9993,2 59243  43.0016 325.4539 0001349 264.8533  95.2169 15.40679490 39412,15.4067949,0.0001349,LEO
59244,STARLINK-31285,2024,93.46,-1.0,+,43.0,Active,0,LEO,USA,USA,Unknown,Unknown,Unknown,1 59244U 24049P   24323.29335462 -.00000724  00000+0 -10057-4 0  9992,2 59244  43.0048 325.5559 0002165 277.8012  82.2598 15.40711369 39407,15.40711369,0.0002165,LEO
59245,STARLINK-31268,2024,93.46,-1.0,+,43.0,Active,0,LEO,USA,USA,Unknown,Unknown,Unknown,1 59245U 24049Q   24323.29203628  .00001414  00000+0  41128-4 0  9999,2 59245  43.0024 319.4057 0001713 275.6538  84.4123 15.40693853 39476,15.40693853,0.0001713,LEO
59246,STARLINK-31284,2024,93.46,-1.0,+,43.0,Active,0,LEO,USA,USA,Unknown,Unknown,Unknown,1 59246U 24049R   24323.34697439  .00001080  00000+0  33105-4 0  9998,2 59246  43.0012 325.0963 0001535 259.3066 100.7618 15.40717041 39411,15.40717041,0.0001535,LEO
59247,STARLINK-31424,2024,93.46,-1.0,+,43.0,Active,0,LEO,USA,USA,Unknown,Unknown,Unknown,1 59247U 24049S   24323.49008646 -.00000365  00000+0 -14906-5 0  9997,2 59247  42.9986 324.4531 0000997 248.8350 111.2399 15.40699984 39434,15.40699984,9.97e-05,LEO
59248,STARLINK-31405,2024,93.46,-1.0,+,43.0,Active,0,LEO,USA,USA,Unknown,Unknown,Unknown,1 59248U 24049T   24323.39391434 -.00000272  00000+0  73705-6 0  9996,2 59248  43.0037 324.5839 0000959 221.5898 138.4886 15.40675576 39421,15.40675576,9.59e-05,LEO
59249,STARLINK-31426,2024,93.46,-1.0,+,43.0,Active,0,LEO,USA,USA,Unknown,Unknown,Unknown,1 59249U 24049U   24323.44975476  .00007041  00000+0  17560-3 0  9991,2 59249  43.0048 324.1360 0001827 271.4630  88.6017 15.40710979 39432,15.40710979,0.0001827,LEO
59250,STARLINK-31407,2024,93.46,-1.0,+,43.0,Active,0,LEO,USA,USA,Unknown,Unknown,Unknown,1 59250U 24049V   24323.30231884  .00001454  00000+0  42068-4 0  9990,2 59250  42.9988 325.6237 0002206 288.3490  71.7126 15.40708368 39407,15.40708368,0.0002206,LEO
59251,STARLINK-31418,2024,92.81,-1.0,+,43.0,Active,0,LEO,USA,USA,Unknown,Unknown,Unknown,1 59251U 24049W   24323.29131044  .00048392  00000+0  78855-3 0  9990,2 59251  43.0007 323.7988 0008951 122.7868 237.3856 15.51825368 39421,15.51825368,0.0008951,LEO
59252,STARLINK-31393,2024,93.46,-1.0,+,43.0,Active,0,LEO,USA,USA,Unknown,Unknown,Unknown,1 59252U 24049X   24322.74994937 -.00000179  00000+0  29642-5 0  9992,2 59252  43.0011 327.4928 0001108 242.0681 118.0063 15.40705941 39346,15.40705941,0.0001108,LEO
59253,STARLINK-31425,2024,93.46,-1.0,+,43.0,Active,0,LEO,USA,USA,Unknown,Unknown,Unknown,1 59253U 24049Y   24323.28440301 -.00002803  00000+0 -59839-4 0  9991,2 59253  43.0029 325.4855 0002495 276.8367  83.2205 15.40700176 39402,15.40700176,0.0002495,LEO
59254,STARLINK-31659,2024,94.11,-1.0,+,53.16,Active,0,LEO,USA,USA,Unknown,Unknown,Unknown,1 59254U 24050A   24323.44312703 -.00000095  00000+0  88995-5 0  9992,2 59254  53.1605 230.9503 0000867  71.8504 288.2591 15.30179867 38817,15.30179867,8.67e-05,LEO
59255,STARLINK-31629,2024,94.11,-1.0,+,53.16,Active,0,LEO,USA,USA,Unknown,Unknown,Unknown,1 59255U 24050B   24323.45102925  .00003260  00000+0  12214-3 0  9992,2 59255  53.1602 233.1300 0001272  97.1932 262.9213 15.30199894 37633,15.30199894,0.0001272,LEO
59256,STARLINK-31652,2024,94.11,-1.0,+,53.16,Active,0,LEO,USA,USA,Unknown,Unknown,Unknown,1 59256U 24050C   24323.04647660  .00006375  00000+0  22716-3 0  9996,2 59256  53.1609 234.8716 0001560  84.0384 276.0794 15.30202188 37570,15.30202188,0.000156,LEO
59257,STARLINK-31655,2024,92.07,-1.0,P,53.15,Active,0,LEO,USA,USA,Unknown,Unknown,Unknown,1 59257U 24050D   24323.58334491  .00946458  00000+0  78860-2 0  9996,2 59257  53.1466 212.3282 0020461 188.5531 145.9414 15.66920399 39098,15.66920399,0.0020461,LEO
59258,STARLINK-31637,2024,94.11,-1.0,+,53.16,Active,0,LEO,USA,USA,Unknown,Unknown,Unknown,1 59258U 24050E   24323.30137961  .00007390  00000+0  26120-3 0  9996,2 59258  53.1607 233.6190 0001271  82.8752 277.2393 15.30223407 37617,15.30223407,0.0001271,LEO
59259,STARLINK-31506,2024,94.11,-1.0,+,53.16,Active,0,LEO,USA,USA,Unknown,Unknown,Unknown,1 59259U 24050F   24323.44787815 -.00002679  00000+0 -78385-4 0  9999,2 59259  53.1582 233.1065 0001539  74.0915 286.0255 15.30180309 37637,15.30180309,0.0001539,LEO
59260,STARLINK-31288,2024,94.11,-1.0,+,53.16,Active,0,LEO,USA,USA,Unknown,Unknown,Unknown,1 59260U 24050G   24323.47109773  .00000479  00000+0  28332-4 0  9996,2 59260  53.1605 233.2468 0001210 105.0159 255.0976 15.30173445 37633,15.30173445,0.000121,LEO
59261,STARLINK-31639,2024,94.11,-1.0,+,53.16,Active,0,LEO,USA,USA,Unknown,Unknown,Unknown,1 59261U 24050H   24323.04332213  .00007920  00000+0  27929-3 0  9995,2 59261  53.1592 234.8499 0001091  70.4423 289.6696 15.30195186 37577,15.30195186,0.0001091,LEO
59262,STARLINK-31673,2024,94.11,-1.0,+,53.16,Active,0,LEO,USA,USA,Unknown,Unknown,Unknown,1 59262U 24050J   24323.05281344  .00003684  00000+0  13646-3 0  9999,2 59262  53.1605 234.9057 0001073  58.6976 301.4129 15.30197771 37571,15.30197771,0.0001073,LEO
59263,STARLINK-31598,2024,94.11,-1.0,+,53.16,Active,0,LEO,USA,USA,Unknown,Unknown,Unknown,1 59263U 24050K   24323.48374546  .00002767  00000+0  10555-3 0  9991,2 59263  53.1611 233.3085 0001124  82.1136 277.9992 15.30191018 37630,15.30191018,0.0001124,LEO
59264,STARLINK-31645,2024,94.11,-1.0,+,53.16,Active,0,LEO,USA,USA,Unknown,Unknown,Unknown,1 59264U 24050L   24323.45838041  .00009436  00000+0  32993-3 0  9994,2 59264  53.1599 233.1672 0001058  86.5420 273.5702 15.30237259 37635,15.30237259,0.0001058,LEO
